TIANMU-1 10             
1 57402U 23101D   26063.20457441  .00011064  00000+0  39231-3 0  9991
2 57402  97.2759 116.4698 0006956 148.3669 211.7991 15.29227048145591
FENGYUN 3F              
1 57490U 23111A   26063.19161385  .00000111  00000+0  72701-4 0  9997
2 57490  98.6939 135.1185 0001327  82.2756 277.8571 14.19918022133964
ARKTIKA-M 2             
1 58584U 23198A   26062.08261615  .00000137  00000+0  00000+0 0  9997
2 58584  63.2203 166.1216 6876963 267.7841  18.8417  2.00614888 16194
TIANMU-1 11             
1 58645U 23205A   26063.16622684  .00009116  00000+0  35903-3 0  9991
2 58645  97.3545  86.4065 0009639  27.0528 333.1211 15.25790368121502
TIANMU-1 12             
1 58646U 23205B   26063.19837917  .00009799  00000+0  38677-3 0  9990
2 58646  97.3534  86.2184 0007439  13.6351 346.5087 15.25714393121493
TIANMU-1 13             
1 58647U 23205C   26063.16387119  .00009274  00000+0  36572-3 0  9992
2 58647  97.3561  86.4210 0007077 354.6934   5.4228 15.25762328121487
TIANMU-1 14             
1 58648U 23205D   26063.14835775  .00009728  00000+0  38364-3 0  9992
2 58648  97.3496  85.6795 0007989 357.9101   2.2103 15.25739592121482
TIANMU-1 19             
1 58660U 23208A   26063.16990605  .00014527  00000+0  50709-3 0  9995
2 58660  97.4388 179.1521 0004268 340.8976  19.2103 15.29693460121262
TIANMU-1 20             
1 58661U 23208B   26063.15850523  .00014290  00000+0  48079-3 0  9993
2 58661  97.4327 179.6687 0006605 346.9028  13.2040 15.30882132121347
TIANMU-1 21             
1 58662U 23208C   26063.16423591  .00016912  00000+0  53430-3 0  9996
2 58662  97.4381 181.9281 0006366 340.2540  19.8455 15.32870926121469
TIANMU-1 22             
1 58663U 23208D   26063.18618104  .00014157  00000+0  49995-3 0  9995
2 58663  97.4383 179.1829 0003548  14.0246 346.1092 15.29320873121276
TIANMU-1 15             
1 58700U 24004A   26063.21169865  .00009520  00000+0  37570-3 0  9995
2 58700  97.4660 249.4577 0007147   9.4707 350.6664 15.25735846119768
TIANMU-1 16             
1 58701U 24004B   26063.19530492  .00010540  00000+0  41524-3 0  9999
2 58701  97.4602 248.7685 0005676  15.2098 344.9310 15.25769907119769
TIANMU-1 17             
1 58702U 24004C   26063.17776595  .00010608  00000+0  41750-3 0  9990
2 58702  97.4634 249.2021 0004890  18.6102 341.5314 15.25806883119756
TIANMU-1 18             
1 58703U 24004D   26063.16274760  .00009688  00000+0  38218-3 0  9998
2 58703  97.4652 249.3977 0004323  19.8611 340.2795 15.25756465119756
INSAT-3DS               
1 58990U 24033A   26063.10184076 -.00000168  00000+0  00000+0 0  9991
2 58990   0.0566 264.2799 0002309  93.0349 283.2610  1.00270325 46014
METEOR-M2 4             
1 59051U 24039A   26063.16240781  .00000058  00000+0  45573-4 0  9994
2 59051  98.6897  23.8483 0008078 110.2045 250.0002 14.22416154104333
