[{"OBJECT_NAME":"TIANMU-1 10","OBJECT_ID":"2023-101D","EPOCH":"2026-03-04T04:54:35.229024","MEAN_MOTION":15.29227048,"ECCENTRICITY":0.0006956,"INCLINATION":97.2759,"RA_OF_ASC_NODE":116.4698,"ARG_OF_PERICENTER":148.3669,"MEAN_ANOMALY":211.7991,"EPHEMERIS_TYPE":0,"CLASSIFICATION_TYPE":"U","NORAD_CAT_ID":57402,"ELEMENT_SET_NO":999,"REV_AT_EPOCH":14559,"BSTAR":0.00039231,"MEAN_MOTION_DOT":0.00011064,"MEAN_MOTION_DDOT":0},{"OBJECT_NAME":"FENGYUN 3F","OBJECT_ID":"2023-111A","EPOCH":"2026-03-04T04:35:55.436640","MEAN_MOTION":14.19918022,"ECCENTRICITY":0.0001327,"INCLINATION":98.6939,"RA_OF_ASC_NODE":135.1185,"ARG_OF_PERICENTER":82.2756,"MEAN_ANOMALY":277.8571,"EPHEMERIS_TYPE":0,"CLASSIFICATION_TYPE":"U","NORAD_CAT_ID":57490,"ELEMENT_SET_NO":999,"REV_AT_EPOCH":13396,"BSTAR":7.2701e-5,"MEAN_MOTION_DOT":1.11e-6,"MEAN_MOTION_DDOT":0},{"OBJECT_NAME":"ARKTIKA-M 2","OBJECT_ID":"2023-198A","EPOCH":"2026-03-03T01:58:58.035360","MEAN_MOTION":2.00614888,"ECCENTRICITY":0.68769635,"INCLINATION":63.2203,"RA_OF_ASC_NODE":166.1216,"ARG_OF_PERICENTER":267.7841,"MEAN_ANOMALY":18.8417,"EPHEMERIS_TYPE":0,"CLASSIFICATION_TYPE":"U","NORAD_CAT_ID":58584,"ELEMENT_SET_NO":999,"REV_AT_EPOCH":1619,"BSTAR":0,"MEAN_MOTION_DOT":1.37e-6,"MEAN_MOTION_DDOT":0},{"OBJECT_NAME":"TIANMU-1 11","OBJECT_ID":"2023-205A","EPOCH":"2026-03-04T03:59:21.998976","MEAN_MOTION":15.25790368,"ECCENTRICITY":0.0009639,"INCLINATION":97.3545,"RA_OF_ASC_NODE":86.4065,"ARG_OF_PERICENTER":27.0528,"MEAN_ANOMALY":333.1211,"EPHEMERIS_TYPE":0,"CLASSIFICATION_TYPE":"U","NORAD_CAT_ID":58645,"ELEMENT_SET_NO":999,"REV_AT_EPOCH":12150,"BSTAR":0.00035903,"MEAN_MOTION_DOT":9.116e-5,"MEAN_MOTION_DDOT":0},{"OBJECT_NAME":"TIANMU-1 12","OBJECT_ID":"2023-205B","EPOCH":"2026-03-04T04:45:39.960288","MEAN_MOTION":15.25714393,"ECCENTRICITY":0.0007439,"INCLINATION":97.3534,"RA_OF_ASC_NODE":86.2184,"ARG_OF_PERICENTER":13.6351,"MEAN_ANOMALY":346.5087,"EPHEMERIS_TYPE":0,"CLASSIFICATION_TYPE":"U","NORAD_CAT_ID":58646,"ELEMENT_SET_NO":999,"REV_AT_EPOCH":12149,"BSTAR":0.00038677,"MEAN_MOTION_DOT":9.799e-5,"MEAN_MOTION_DDOT":0},{"OBJECT_NAME":"TIANMU-1 13","OBJECT_ID":"2023-205C","EPOCH":"2026-03-04T03:55:58.470816","MEAN_MOTION":15.25762328,"ECCENTRICITY":0.0007077,"INCLINATION":97.3561,"RA_OF_ASC_NODE":86.421,"ARG_OF_PERICENTER":354.6934,"MEAN_ANOMALY":5.4228,"EPHEMERIS_TYPE":0,"CLASSIFICATION_TYPE":"U","NORAD_CAT_ID":58647,"ELEMENT_SET_NO":999,"REV_AT_EPOCH":12148,"BSTAR":0.00036572,"MEAN_MOTION_DOT":9.274e-5,"MEAN_MOTION_DDOT":0},{"OBJECT_NAME":"TIANMU-1 14","OBJECT_ID":"2023-205D","EPOCH":"2026-03-04T03:33:38.109600","MEAN_MOTION":15.25739592,"ECCENTRICITY":0.0007989,"INCLINATION":97.3496,"RA_OF_ASC_NODE":85.6795,"ARG_OF_PERICENTER":357.9101,"MEAN_ANOMALY":2.2103,"EPHEMERIS_TYPE":0,"CLASSIFICATION_TYPE":"U","NORAD_CAT_ID":58648,"ELEMENT_SET_NO":999,"REV_AT_EPOCH":12148,"BSTAR":0.00038364,"MEAN_MOTION_DOT":9.728e-5,"MEAN_MOTION_DDOT":0},{"OBJECT_NAME":"TIANMU-1 19","OBJECT_ID":"2023-208A","EPOCH":"2026-03-04T04:04:39.882720","MEAN_MOTION":15.2969346,"ECCENTRICITY":0.0004268,"INCLINATION":97.4388,"RA_OF_ASC_NODE":179.1521,"ARG_OF_PERICENTER":340.8976,"MEAN_ANOMALY":19.2103,"EPHEMERIS_TYPE":0,"CLASSIFICATION_TYPE":"U","NORAD_CAT_ID":58660,"ELEMENT_SET_NO":999,"REV_AT_EPOCH":12126,"BSTAR":0.00050709,"MEAN_MOTION_DOT":0.00014527,"MEAN_MOTION_DDOT":0},{"OBJECT_NAME":"TIANMU-1 20","OBJECT_ID":"2023-208B","EPOCH":"2026-03-04T03:48:14.851872","MEAN_MOTION":15.30882132,"ECCENTRICITY":0.0006605,"INCLINATION":97.4327,"RA_OF_ASC_NODE":179.6687,"ARG_OF_PERICENTER":346.9028,"MEAN_ANOMALY":13.204,"EPHEMERIS_TYPE":0,"CLASSIFICATION_TYPE":"U","NORAD_CAT_ID":58661,"ELEMENT_SET_NO":999,"REV_AT_EPOCH":12134,"BSTAR":0.00048079,"MEAN_MOTION_DOT":0.0001429,"MEAN_MOTION_DDOT":0},{"OBJECT_NAME":"TIANMU-1 21","OBJECT_ID":"2023-208C","EPOCH":"2026-03-04T03:56:29.982624","MEAN_MOTION":15.32870926,"ECCENTRICITY":0.0006366,"INCLINATION":97.4381,"RA_OF_ASC_NODE":181.9281,"ARG_OF_PERICENTER":340.254,"MEAN_ANOMALY":19.8455,"EPHEMERIS_TYPE":0,"CLASSIFICATION_TYPE":"U","NORAD_CAT_ID":58662,"ELEMENT_SET_NO":999,"REV_AT_EPOCH":12146,"BSTAR":0.0005343,"MEAN_MOTION_DOT":0.00016912,"MEAN_MOTION_DDOT":0},{"OBJECT_NAME":"TIANMU-1 22","OBJECT_ID":"2023-208D","EPOCH":"2026-03-04T04:28:06.041856","MEAN_MOTION":15.29320873,"ECCENTRICITY":0.0003548,"INCLINATION":97.4383,"RA_OF_ASC_NODE":179.1829,"ARG_OF_PERICENTER":14.0246,"MEAN_ANOMALY":346.1092,"EPHEMERIS_TYPE":0,"CLASSIFICATION_TYPE":"U","NORAD_CAT_ID":58663,"ELEMENT_SET_NO":999,"REV_AT_EPOCH":12127,"BSTAR":0.00049995,"MEAN_MOTION_DOT":0.00014157,"MEAN_MOTION_DDOT":0},{"OBJECT_NAME":"TIANMU-1 15","OBJECT_ID":"2024-004A","EPOCH":"2026-03-04T05:04:50.763360","MEAN_MOTION":15.25735846,"ECCENTRICITY":0.0007147,"INCLINATION":97.466,"RA_OF_ASC_NODE":249.4577,"ARG_OF_PERICENTER":9.4707,"MEAN_ANOMALY":350.6664,"EPHEMERIS_TYPE":0,"CLASSIFICATION_TYPE":"U","NORAD_CAT_ID":58700,"ELEMENT_SET_NO":999,"REV_AT_EPOCH":11976,"BSTAR":0.0003757,"MEAN_MOTION_DOT":9.52e-5,"MEAN_MOTION_DDOT":0},{"OBJECT_NAME":"TIANMU-1 16","OBJECT_ID":"2024-004B","EPOCH":"2026-03-04T04:41:14.345088","MEAN_MOTION":15.25769907,"ECCENTRICITY":0.0005676,"INCLINATION":97.4602,"RA_OF_ASC_NODE":248.7685,"ARG_OF_PERICENTER":15.2098,"MEAN_ANOMALY":344.931,"EPHEMERIS_TYPE":0,"CLASSIFICATION_TYPE":"U","NORAD_CAT_ID":58701,"ELEMENT_SET_NO":999,"REV_AT_EPOCH":11976,"BSTAR":0.00041524,"MEAN_MOTION_DOT":0.0001054,"MEAN_MOTION_DDOT":0},{"OBJECT_NAME":"TIANMU-1 17","OBJECT_ID":"2024-004C","EPOCH":"2026-03-04T04:15:58.978080","MEAN_MOTION":15.25806883,"ECCENTRICITY":0.000489,"INCLINATION":97.4634,"RA_OF_ASC_NODE":249.2021,"ARG_OF_PERICENTER":18.6102,"MEAN_ANOMALY":341.5314,"EPHEMERIS_TYPE":0,"CLASSIFICATION_TYPE":"U","NORAD_CAT_ID":58702,"ELEMENT_SET_NO":999,"REV_AT_EPOCH":11975,"BSTAR":0.0004175,"MEAN_MOTION_DOT":0.00010608,"MEAN_MOTION_DDOT":0},{"OBJECT_NAME":"TIANMU-1 18","OBJECT_ID":"2024-004D","EPOCH":"2026-03-04T03:54:21.392640","MEAN_MOTION":15.25756465,"ECCENTRICITY":0.0004323,"INCLINATION":97.4652,"RA_OF_ASC_NODE":249.3977,"ARG_OF_PERICENTER":19.8611,"MEAN_ANOMALY":340.2795,"EPHEMERIS_TYPE":0,"CLASSIFICATION_TYPE":"U","NORAD_CAT_ID":58703,"ELEMENT_SET_NO":999,"REV_AT_EPOCH":11975,"BSTAR":0.00038218,"MEAN_MOTION_DOT":9.688e-5,"MEAN_MOTION_DDOT":0},{"OBJECT_NAME":"INSAT-3DS","OBJECT_ID":"2024-033A","EPOCH":"2026-03-04T02:26:39.041664","MEAN_MOTION":1.00270325,"ECCENTRICITY":0.0002309,"INCLINATION":0.0566,"RA_OF_ASC_NODE":264.2799,"ARG_OF_PERICENTER":93.0349,"MEAN_ANOMALY":283.261,"EPHEMERIS_TYPE":0,"CLASSIFICATION_TYPE":"U","NORAD_CAT_ID":58990,"ELEMENT_SET_NO":999,"REV_AT_EPOCH":4601,"BSTAR":0,"MEAN_MOTION_DOT":-1.68e-6,"MEAN_MOTION_DDOT":0},{"OBJECT_NAME":"METEOR-M2 4","OBJECT_ID":"2024-039A","EPOCH":"2026-03-04T03:53:52.034784","MEAN_MOTION":14.22416154,"ECCENTRICITY":0.0008078,"INCLINATION":98.6897,"RA_OF_ASC_NODE":23.8483,"ARG_OF_PERICENTER":110.2045,"MEAN_ANOMALY":250.0002,"EPHEMERIS_TYPE":0,"CLASSIFICATION_TYPE":"U","NORAD_CAT_ID":59051,"ELEMENT_SET_NO":999,"REV_AT_EPOCH":10433,"BSTAR":4.5573e-5,"MEAN_MOTION_DOT":5.8e-7,"MEAN_MOTION_DDOT":0}]
